CTC2_L_00178001-01
1 10000U 26309DD  26075.70042824  .00000000  00000+0  00000-0 0  9997
2 10000  45.0000   0.0000 0000000   0.0000   0.0000 14.79785908    11
CTC2_L_00178001-02
1 10001U 22876OW  26075.70042824  .00000000  00000+0  00000-0 0  9993
2 10001  45.0000   0.0000 0000000   0.0000  90.0000 14.79785908    11
CTC2_L_00178001-03
1 10002U 25934WA  26075.70042824  .00000000  00000+0  00000-0 0  9992
2 10002  45.0000   0.0000 0000000   0.0000 180.0000 14.79785908    12
CTC2_L_00178001-04
1 10003U 24064KT  26075.70042824  .00000000  00000+0  00000-0 0  9996
2 10003  45.0000   0.0000 0000000   0.0000 270.0000 14.79785908    13
CTC2_L_00178002-01
1 10004U 22529EG  26075.70042824  .00000000  00000+0  00000-0 0  9991
2 10004  45.0000  12.0000 0000000   0.0000  12.0000 14.79785908    11
CTC2_L_00178002-02
1 10005U 25211HE  26075.70042824  .00000000  00000+0  00000-0 0  9993
2 10005  45.0000  12.0000 0000000   0.0000 102.0000 14.79785908    12
CTC2_L_00178002-03
1 10006U 23123DY  26075.70042824  .00000000  00000+0  00000-0 0  9994
2 10006  45.0000  12.0000 0000000   0.0000 192.0000 14.79785908    12
CTC2_L_00178002-04
1 10007U 26815BM  26075.70042824  .00000000  00000+0  00000-0 0  9996
2 10007  45.0000  12.0000 0000000   0.0000 282.0000 14.79785908    13
CTC2_L_00178003-01
1 10008U 23467QC  26075.70042824  .00000000  00000+0  00000-0 0  9997
2 10008  45.0000  24.0000 0000000   0.0000  24.0000 14.79785908    11
CTC2_L_00178003-02
1 10009U 25119IP  26075.70042824  .00000000  00000+0  00000-0 0  9994
2 10009  45.0000  24.0000 0000000   0.0000 114.0000 14.79785908    12
CTC2_L_00178003-03
1 10010U 25108A   26075.70042824  .00000000  00000+0  00000-0 0  9994
2 10010  45.0000  24.0000 0000000   0.0000 204.0000 14.79785908    14
CTC2_L_00178003-04
1 10011U 25818SX  26075.70042824  .00000000  00000+0  00000-0 0  9993
2 10011  45.0000  24.0000 0000000   0.0000 294.0000 14.79785908    14
CTC2_L_00178004-01
1 10012U 22233CN  26075.70042824  .00000000  00000+0  00000-0 0  9992
2 10012  45.0000  36.0000 0000000   0.0000  36.0000 14.79785908    12
CTC2_L_00178004-02
1 10013U 25972SH  26075.70042824  .00000000  00000+0  00000-0 0  9996
2 10013  45.0000  36.0000 0000000   0.0000 126.0000 14.79785908    13
CTC2_L_00178004-03
1 10014U 24152YE  26075.70042824  .00000000  00000+0  00000-0 0  9996
2 10014  45.0000  36.0000 0000000   0.0000 216.0000 14.79785908    14
CTC2_L_00178004-04
1 10015U 25248MN  26075.70042824  .00000000  00000+0  00000-0 0  9994
2 10015  45.0000  36.0000 0000000   0.0000 306.0000 14.79785908    15
CTC2_L_00178005-01
1 10016U 23790XN  26075.70042824  .00000000  00000+0  00000-0 0  9995
2 10016  45.0000  48.0000 0000000   0.0000  48.0000 14.79785908    12
CTC2_L_00178005-02
1 10017U 26844V   26075.70042824  .00000000  00000+0  00000-0 0  9999
2 10017  45.0000  48.0000 0000000   0.0000 138.0000 14.79785908    13
CTC2_L_00178005-03
1 10018U 26240EE  26075.70042824  .00000000  00000+0  00000-0 0  9990
2 10018  45.0000  48.0000 0000000   0.0000 228.0000 14.79785908    14
CTC2_L_00178005-04
1 10019U 25415UJ  26075.70042824  .00000000  00000+0  00000-0 0  9994
2 10019  45.0000  48.0000 0000000   0.0000 318.0000 14.79785908    15
CTC2_L_00178006-01
1 10020U 22835IZ  26075.70042824  .00000000  00000+0  00000-0 0  9999
2 10020  45.0000  60.0000 0000000   0.0000  60.0000 14.79785908    15
CTC2_L_00178006-02
1 10021U 25834UE  26075.70042824  .00000000  00000+0  00000-0 0  9992
2 10021  45.0000  60.0000 0000000   0.0000 150.0000 14.79785908    16
CTC2_L_00178006-03
1 10022U 26130XL  26075.70042824  .00000000  00000+0  00000-0 0  9993
2 10022  45.0000  60.0000 0000000   0.0000 240.0000 14.79785908    17
CTC2_L_00178006-04
1 10023U 23915OH  26075.70042824  .00000000  00000+0  00000-0 0  9992
2 10023  45.0000  60.0000 0000000   0.0000 330.0000 14.79785908    18
CTC2_L_00178007-01
1 10024U 23015ZI  26075.70042824  .00000000  00000+0  00000-0 0  9994
2 10024  45.0000  72.0000 0000000   0.0000  72.0000 14.79785908    15
CTC2_L_00178007-02
1 10025U 22924GM  26075.70042824  .00000000  00000+0  00000-0 0  9993
2 10025  45.0000  72.0000 0000000   0.0000 162.0000 14.79785908    16
CTC2_L_00178007-03
1 10026U 26693UV  26075.70042824  .00000000  00000+0  00000-0 0  9991
2 10026  45.0000  72.0000 0000000   0.0000 252.0000 14.79785908    17
CTC2_L_00178007-04
1 10027U 25458LZ  26075.70042824  .00000000  00000+0  00000-0 0  9990
2 10027  45.0000  72.0000 0000000   0.0000 342.0000 14.79785908    18
CTC2_L_00178008-01
1 10028U 25642JZ  26075.70042824  .00000000  00000+0  00000-0 0  9996
2 10028  45.0000  84.0000 0000000   0.0000  84.0000 14.79785908    15
CTC2_L_00178008-02
1 10029U 25151YZ  26075.70042824  .00000000  00000+0  00000-0 0  9992
2 10029  45.0000  84.0000 0000000   0.0000 174.0000 14.79785908    16
CTC2_L_00178008-03
1 10030U 25055ZS  26075.70042824  .00000000  00000+0  00000-0 0  9997
2 10030  45.0000  84.0000 0000000   0.0000 264.0000 14.79785908    18
CTC2_L_00178008-04
1 10031U 23559NK  26075.70042824  .00000000  00000+0  00000-0 0  9995
2 10031  45.0000  84.0000 0000000   0.0000 354.0000 14.79785908    19
CTC2_L_00178009-01
1 10032U 26617BJ  26075.70042824  .00000000  00000+0  00000-0 0  9994
2 10032  45.0000  96.0000 0000000   0.0000  96.0000 14.79785908    16
CTC2_L_00178009-02
1 10033U 22998GS  26075.70042824  .00000000  00000+0  00000-0 0  9993
2 10033  45.0000  96.0000 0000000   0.0000 186.0000 14.79785908    17
CTC2_L_00178009-03
1 10034U 24161MP  26075.70042824  .00000000  00000+0  00000-0 0  9998
2 10034  45.0000  96.0000 0000000   0.0000 276.0000 14.79785908    18
CTC2_L_00178009-04
1 10035U 22506TK  26075.70042824  .00000000  00000+0  00000-0 0  9990
2 10035  45.0000  96.0000 0000000   0.0000   6.0000 14.79785908    10
CTC2_L_00178010-01
1 10036U 25459TB  26075.70042824  .00000000  00000+0  00000-0 0  9991
2 10036  45.0000 108.0000 0000000   0.0000 108.0000 14.79785908    18
CTC2_L_00178010-02
1 10037U 25935HF  26075.70042824  .00000000  00000+0  00000-0 0  9991
2 10037  45.0000 108.0000 0000000   0.0000 198.0000 14.79785908    18
CTC2_L_00178010-03
1 10038U 24352RP  26075.70042824  .00000000  00000+0  00000-0 0  9994
2 10038  45.0000 108.0000 0000000   0.0000 288.0000 14.79785908    19
CTC2_L_00178010-04
1 10039U 24785S   26075.70042824  .00000000  00000+0  00000-0 0  9995
2 10039  45.0000 108.0000 0000000   0.0000  18.0000 14.79785908    11
CTC2_L_00178011-01
1 10040U 23581ZM  26075.70042824  .00000000  00000+0  00000-0 0  9990
2 10040  45.0000 120.0000 0000000   0.0000 120.0000 14.79785908    11
CTC2_L_00178011-02
1 10041U 26841QT  26075.70042824  .00000000  00000+0  00000-0 0  9993
2 10041  45.0000 120.0000 0000000   0.0000 210.0000 14.79785908    12
CTC2_L_00178011-03
1 10042U 24624GM  26075.70042824  .00000000  00000+0  00000-0 0  9991
2 10042  45.0000 120.0000 0000000   0.0000 300.0000 14.79785908    13
CTC2_L_00178011-04
1 10043U 23139FO  26075.70042824  .00000000  00000+0  00000-0 0  9992
2 10043  45.0000 120.0000 0000000   0.0000  30.0000 14.79785908    14
CTC2_L_00178012-01
1 10044U 24757NE  26075.70042824  .00000000  00000+0  00000-0 0  9990
2 10044  45.0000 132.0000 0000000   0.0000 132.0000 14.79785908    11
CTC2_L_00178012-02
1 10045U 25699BB  26075.70042824  .00000000  00000+0  00000-0 0  9997
2 10045  45.0000 132.0000 0000000   0.0000 222.0000 14.79785908    12
CTC2_L_00178012-03
1 10046U 26744AA  26075.70042824  .00000000  00000+0  00000-0 0  9990
2 10046  45.0000 132.0000 0000000   0.0000 312.0000 14.79785908    13
CTC2_L_00178012-04
1 10047U 26530WP  26075.70042824  .00000000  00000+0  00000-0 0  9994
2 10047  45.0000 132.0000 0000000   0.0000  42.0000 14.79785908    14
CTC2_L_00178013-01
1 10048U 24171MF  26075.70042824  .00000000  00000+0  00000-0 0  9994
2 10048  45.0000 144.0000 0000000   0.0000 144.0000 14.79785908    11
CTC2_L_00178013-02
1 10049U 22800ME  26075.70042824  .00000000  00000+0  00000-0 0  9992
2 10049  45.0000 144.0000 0000000   0.0000 234.0000 14.79785908    12
CTC2_L_00178013-03
1 10050U 26113RN  26075.70042824  .00000000  00000+0  00000-0 0  9995
2 10050  45.0000 144.0000 0000000   0.0000 324.0000 14.79785908    14
CTC2_L_00178013-04
1 10051U 24182YJ  26075.70042824  .00000000  00000+0  00000-0 0  9990
2 10051  45.0000 144.0000 0000000   0.0000  54.0000 14.79785908    15
CTC2_L_00178014-01
1 10052U 25033PJ  26075.70042824  .00000000  00000+0  00000-0 0  9997
2 10052  45.0000 156.0000 0000000   0.0000 156.0000 14.79785908    12
CTC2_L_00178014-02
1 10053U 26512PD  26075.70042824  .00000000  00000+0  00000-0 0  9991
2 10053  45.0000 156.0000 0000000   0.0000 246.0000 14.79785908    13
CTC2_L_00178014-03
1 10054U 23363LB  26075.70042824  .00000000  00000+0  00000-0 0  9993
2 10054  45.0000 156.0000 0000000   0.0000 336.0000 14.79785908    14
CTC2_L_00178014-04
1 10055U 22829KJ  26075.70042824  .00000000  00000+0  00000-0 0  9990
2 10055  45.0000 156.0000 0000000   0.0000  66.0000 14.79785908    15
CTC2_L_00178015-01
1 10056U 26800OJ  26075.70042824  .00000000  00000+0  00000-0 0  9994
2 10056  45.0000 168.0000 0000000   0.0000 168.0000 14.79785908    12
CTC2_L_00178015-02
1 10057U 22830PI  26075.70042824  .00000000  00000+0  00000-0 0  9994
2 10057  45.0000 168.0000 0000000   0.0000 258.0000 14.79785908    13
CTC2_L_00178015-03
1 10058U 25168KJ  26075.70042824  .00000000  00000+0  00000-0 0  9992
2 10058  45.0000 168.0000 0000000   0.0000 348.0000 14.79785908    14
CTC2_L_00178015-04
1 10059U 22055EX  26075.70042824  .00000000  00000+0  00000-0 0  9995
2 10059  45.0000 168.0000 0000000   0.0000  78.0000 14.79785908    15
CTC2_L_00178016-01
1 10060U 26158JG  26075.70042824  .00000000  00000+0  00000-0 0  9995
2 10060  45.0000 180.0000 0000000   0.0000 180.0000 14.79785908    15
CTC2_L_00178016-02
1 10061U 24013ML  26075.70042824  .00000000  00000+0  00000-0 0  9994
2 10061  45.0000 180.0000 0000000   0.0000 270.0000 14.79785908    16
